[{"OBJECT_NAME":"STARLINK-34152","OBJECT_ID":"2025-101G","EPOCH":"2026-03-09T05:09:30.095424","MEAN_MOTION":15.27622597,"ECCENTRICITY":0.00026669,"INCLINATION":43.0038,"RA_OF_ASC_NODE":0.5586,"ARG_OF_PERICENTER":260.3604,"MEAN_ANOMALY":99.6946,"EPHEMERIS_TYPE":0,"CLASSIFICATION_TYPE":"U","NORAD_CAT_ID":64000,"ELEMENT_SET_NO":999,"REV_AT_EPOCH":4698,"BSTAR":0.0017213719,"MEAN_MOTION_DOT":0.00047476,"MEAN_MOTION_DDOT":0},{"OBJECT_NAME":"UNKNOWN","OBJECT_ID":"","EPOCH":"2026-02-22T00:08:45.737952","MEAN_MOTION":14.15044008,"ECCENTRICITY":0.0509514,"INCLINATION":65.771,"RA_OF_ASC_NODE":261.596,"ARG_OF_PERICENTER":328.3661,"MEAN_ANOMALY":28.7697,"EPHEMERIS_TYPE":0,"CLASSIFICATION_TYPE":"U","NORAD_CAT_ID":87456,"ELEMENT_SET_NO":999,"REV_AT_EPOCH":62157,"BSTAR":0.00055206,"MEAN_MOTION_DOT":3.756e-5,"MEAN_MOTION_DDOT":0}]
